[Satellite]
VERSION=1.1
NAME=NOAA 4 [-]
NICKNAME=NOAA 4 [-]
TLE1=1 07529U 74089A   15054.89513337 -.00000015  00000-0  18115-3 0  9991
TLE2=2 07529 101.5190  33.9439 0008759 217.3724 196.5600 12.53101018842281
